[
    {
        "Altitude(m)": 711355.1287132573,
        "Argument of Periapsis(deg)": 0.010251109067964361,
        "Eccentricity": 0.0,
        "Inclination(deg)": 45.0,
        "Latitude(deg)": -29.076310877678576,
        "Longitude(deg)": 62.884395925139444,
        "Mean Anomaly(deg)": -136.89280501726722,
        "RAAN(deg)": 309.99032325268763,
        "Satellite Name": "Constellation 1 1377",
        "Satellite Number": 1377,
        "Semi-Major Axis(m)": 7083131.272910544,
        "Time(s)": 171
    },
    {
        "Altitude(m)": 711368.890075245,
        "Argument of Periapsis(deg)": 0.010311057074209765,
        "Eccentricity": 0.0,
        "Inclination(deg)": 45.0,
        "Latitude(deg)": -29.112160607175312,
        "Longitude(deg)": 62.936231577019555,
        "Mean Anomaly(deg)": -136.8321038770174,
        "RAAN(deg)": 309.99026666352205,
        "Satellite Name": "Constellation 1 1377",
        "Satellite Number": 1377,
        "Semi-Major Axis(m)": 7083131.272910544,
        "Time(s)": 172
    },
    {
        "Altitude(m)": 711382.6485554348,
        "Argument of Periapsis(deg)": 0.010371005080455171,
        "Eccentricity": 0.0,
        "Inclination(deg)": 45.0,
        "Latitude(deg)": -29.147986717764898,
        "Longitude(deg)": 62.988105866291406,
        "Mean Anomaly(deg)": -136.77140273676744,
        "RAAN(deg)": 309.9902100743565,
        "Satellite Name": "Constellation 1 1377",
        "Satellite Number": 1377,
        "Semi-Major Axis(m)": 7083131.272910544,
        "Time(s)": 173
    },
    {
        "Altitude(m)": 711396.4041057884,
        "Argument of Periapsis(deg)": 0.010430953086700577,
        "Eccentricity": 0.0,
        "Inclination(deg)": 45.0,
        "Latitude(deg)": -29.18378915936955,
        "Longitude(deg)": 63.040018851316304,
        "Mean Anomaly(deg)": -136.71070159651754,
        "RAAN(deg)": 309.9901534851909,
        "Satellite Name": "Constellation 1 1377",
        "Satellite Number": 1377,
        "Semi-Major Axis(m)": 7083131.272910544,
        "Time(s)": 174
    },
    {
        "Altitude(m)": 711410.1566782513,
        "Argument of Periapsis(deg)": 0.010490901092945983,
        "Eccentricity": 0.0,
        "Inclination(deg)": 45.0,
        "Latitude(deg)": -29.219567881841037,
        "Longitude(deg)": 63.091970590412714,
        "Mean Anomaly(deg)": -136.6500004562677,
        "RAAN(deg)": 309.9900968960253,
        "Satellite Name": "Constellation 1 1377",
        "Satellite Number": 1377,
        "Semi-Major Axis(m)": 7083131.272910544,
        "Time(s)": 175
    },
    {
        "Altitude(m)": 711423.9062247757,
        "Argument of Periapsis(deg)": 0.010550849099191389,
        "Eccentricity": 0.0,
        "Inclination(deg)": 45.0,
        "Latitude(deg)": -29.255322834960392,
        "Longitude(deg)": 63.14396114185533,
        "Mean Anomaly(deg)": -136.58929931601773,
        "RAAN(deg)": 309.9900403068598,
        "Satellite Name": "Constellation 1 1377",
        "Satellite Number": 1377,
        "Semi-Major Axis(m)": 7083131.272910544,
        "Time(s)": 176
    },
    {
        "Altitude(m)": 711437.6526973183,
        "Argument of Periapsis(deg)": 0.010610797105436795,
        "Eccentricity": 0.0,
        "Inclination(deg)": 45.0,
        "Latitude(deg)": -29.291053968437776,
        "Longitude(deg)": 63.19599056387455,
        "Mean Anomaly(deg)": -136.5285981757678,
        "RAAN(deg)": 309.9899837176942,
        "Satellite Name": "Constellation 1 1377",
        "Satellite Number": 1377,
        "Semi-Major Axis(m)": 7083131.272910544,
        "Time(s)": 177
    },
    {
        "Altitude(m)": 711451.3960478352,
        "Argument of Periapsis(deg)": 0.0106707451116822,
        "Eccentricity": 0.0,
        "Inclination(deg)": 45.0,
        "Latitude(deg)": -29.326761231912695,
        "Longitude(deg)": 63.24805874655906,
        "Mean Anomaly(deg)": -136.46789703551792,
        "RAAN(deg)": 309.9899271285287,
        "Satellite Name": "Constellation 1 1377",
        "Satellite Number": 1377,
        "Semi-Major Axis(m)": 7083131.272910544,
        "Time(s)": 178
    },
    {
        "Altitude(m)": 711465.1362282755,
        "Argument of Periapsis(deg)": 0.010730693117927606,
        "Eccentricity": 0.0,
        "Inclination(deg)": 45.0,
        "Latitude(deg)": -29.362444574953376,
        "Longitude(deg)": 63.300166084242946,
        "Mean Anomaly(deg)": -136.40719589526805,
        "RAAN(deg)": 309.98987053936304,
        "Satellite Name": "Constellation 1 1377",
        "Satellite Number": 1377,
        "Semi-Major Axis(m)": 7083131.272910544,
        "Time(s)": 179
    },
    {
        "Altitude(m)": 711478.8731905974,
        "Argument of Periapsis(deg)": 0.01079064112417301,
        "Eccentricity": 0.0,
        "Inclination(deg)": 45.0,
        "Latitude(deg)": -29.398103947057493,
        "Longitude(deg)": 63.352312466923436,
        "Mean Anomaly(deg)": -136.34649475501817,
        "RAAN(deg)": 309.98981395019746,
        "Satellite Name": "Constellation 1 1377",
        "Satellite Number": 1377,
        "Semi-Major Axis(m)": 7083131.272910544,
        "Time(s)": 180
    },
    {
        "Altitude(m)": 711492.6068867665,
        "Argument of Periapsis(deg)": 0.010850589130418416,
        "Eccentricity": 0.0,
        "Inclination(deg)": 45.0,
        "Latitude(deg)": -29.433739297651723,
        "Longitude(deg)": 63.40449795264816,
        "Mean Anomaly(deg)": -136.28579361476824,
        "RAAN(deg)": 309.98975736103193,
        "Satellite Name": "Constellation 1 1377",
        "Satellite Number": 1377,
        "Semi-Major Axis(m)": 7083131.272910544,
        "Time(s)": 181
    },
    {
        "Altitude(m)": 711506.3372687341,
        "Argument of Periapsis(deg)": 0.01091053713666382,
        "Eccentricity": 0.0,
        "Inclination(deg)": 45.0,
        "Latitude(deg)": -29.469350576091585,
        "Longitude(deg)": 63.456722599417226,
        "Mean Anomaly(deg)": -136.2250924745184,
        "RAAN(deg)": 309.98970077186635,
        "Satellite Name": "Constellation 1 1377",
        "Satellite Number": 1377,
        "Semi-Major Axis(m)": 7083131.272910544,
        "Time(s)": 182
    },
    {
        "Altitude(m)": 711520.0642884724,
        "Argument of Periapsis(deg)": 0.010970485142909228,
        "Eccentricity": 0.0,
        "Inclination(deg)": 45.0,
        "Latitude(deg)": -29.504937731661695,
        "Longitude(deg)": 63.50898646518323,
        "Mean Anomaly(deg)": -136.16439133426843,
        "RAAN(deg)": 309.98964418270083,
        "Satellite Name": "Constellation 1 1377",
        "Satellite Number": 1377,
        "Semi-Major Axis(m)": 7083131.272910544,
        "Time(s)": 183
    },
    {
        "Altitude(m)": 711533.7878979418,
        "Argument of Periapsis(deg)": 0.011030433149154634,
        "Eccentricity": 0.0,
        "Inclination(deg)": 45.0,
        "Latitude(deg)": -29.540500713575423,
        "Longitude(deg)": 63.561289607849744,
        "Mean Anomaly(deg)": -136.10369019401853,
        "RAAN(deg)": 309.9895875935352,
        "Satellite Name": "Constellation 1 1377",
        "Satellite Number": 1377,
        "Semi-Major Axis(m)": 7083131.272910544,
        "Time(s)": 184
    },
    {
        "Altitude(m)": 711547.5080491065,
        "Argument of Periapsis(deg)": 0.01109038115540004,
        "Eccentricity": 0.0,
        "Inclination(deg)": 45.0,
        "Latitude(deg)": -29.57603947097525,
        "Longitude(deg)": 63.61363191717501,
        "Mean Anomaly(deg)": -136.04298905376868,
        "RAAN(deg)": 309.9895310043696,
        "Satellite Name": "Constellation 1 1377",
        "Satellite Number": 1377,
        "Semi-Major Axis(m)": 7083131.272910544,
        "Time(s)": 185
    },
    {
        "Altitude(m)": 711561.2246939439,
        "Argument of Periapsis(deg)": 0.011150329161645444,
        "Eccentricity": 0.0,
        "Inclination(deg)": 45.0,
        "Latitude(deg)": -29.611553952932088,
        "Longitude(deg)": 63.66601378715783,
        "Mean Anomaly(deg)": -135.98228791351875,
        "RAAN(deg)": 309.9894744152041,
        "Satellite Name": "Constellation 1 1377",
        "Satellite Number": 1377,
        "Semi-Major Axis(m)": 7083131.272910544,
        "Time(s)": 186
    },
    {
        "Altitude(m)": 711574.9377844232,
        "Argument of Periapsis(deg)": 0.01121027716789085,
        "Eccentricity": 0.0,
        "Inclination(deg)": 45.0,
        "Latitude(deg)": -29.64704410844581,
        "Longitude(deg)": 63.718435107455946,
        "Mean Anomaly(deg)": -135.92158677326887,
        "RAAN(deg)": 309.9894178260385,
        "Satellite Name": "Constellation 1 1377",
        "Satellite Number": 1377,
        "Semi-Major Axis(m)": 7083131.272910544,
        "Time(s)": 187
    },
    {
        "Altitude(m)": 711588.6472725178,
        "Argument of Periapsis(deg)": 0.011270225174136258,
        "Eccentricity": 0.0,
        "Inclination(deg)": 45.0,
        "Latitude(deg)": -29.68250988644525,
        "Longitude(deg)": 63.77089593577329,
        "Mean Anomaly(deg)": -135.86088563301894,
        "RAAN(deg)": 309.989361236873,
        "Satellite Name": "Constellation 1 1377",
        "Satellite Number": 1377,
        "Semi-Major Axis(m)": 7083131.272910544,
        "Time(s)": 188
    },
    {
        "Altitude(m)": 711602.3531102141,
        "Argument of Periapsis(deg)": 0.011330173180381662,
        "Eccentricity": 0.0,
        "Inclination(deg)": 45.0,
        "Latitude(deg)": -29.71795123578757,
        "Longitude(deg)": 63.823396329761685,
        "Mean Anomaly(deg)": -135.8001844927691,
        "RAAN(deg)": 309.9893046477074,
        "Satellite Name": "Constellation 1 1377",
        "Satellite Number": 1377,
        "Semi-Major Axis(m)": 7083131.272910544,
        "Time(s)": 189
    }
]